[{"OBJECT_NAME":"STARLINK-2433","OBJECT_ID":"2021-018BG","EPOCH":"2025-12-01T16:17:26.547072","MEAN_MOTION":15.06394611,"ECCENTRICITY":0.0001388,"INCLINATION":53.0562,"RA_OF_ASC_NODE":311.6055,"ARG_OF_PERICENTER":90.2448,"MEAN_ANOMALY":269.87,"EPHEMERIS_TYPE":0,"CLASSIFICATION_TYPE":"U","NORAD_CAT_ID":47841,"ELEMENT_SET_NO":999,"REV_AT_EPOCH":26210,"BSTAR":-2.5377e-5,"MEAN_MOTION_DOT":-6.59e-6,"MEAN_MOTION_DDOT":0},{"OBJECT_NAME":"STARLINK-2435","OBJECT_ID":"2021-018BJ","EPOCH":"2025-12-01T16:53:55.192128","MEAN_MOTION":15.06401574,"ECCENTRICITY":0.0001486,"INCLINATION":53.0544,"RA_OF_ASC_NODE":336.4911,"ARG_OF_PERICENTER":91.4156,"MEAN_ANOMALY":268.7003,"EPHEMERIS_TYPE":0,"CLASSIFICATION_TYPE":"U","NORAD_CAT_ID":47843,"ELEMENT_SET_NO":999,"REV_AT_EPOCH":26177,"BSTAR":6.3322e-5,"MEAN_MOTION_DOT":6.62e-6,"MEAN_MOTION_DDOT":0},{"OBJECT_NAME":"STARLINK-2446","OBJECT_ID":"2021-018BK","EPOCH":"2025-12-01T16:51:56.283264","MEAN_MOTION":15.0638336,"ECCENTRICITY":0.000134,"INCLINATION":53.0561,"RA_OF_ASC_NODE":331.4983,"ARG_OF_PERICENTER":94.6385,"MEAN_ANOMALY":265.4757,"EPHEMERIS_TYPE":0,"CLASSIFICATION_TYPE":"U","NORAD_CAT_ID":47844,"ELEMENT_SET_NO":999,"REV_AT_EPOCH":26182,"BSTAR":0.00014232,"MEAN_MOTION_DOT":1.838e-5,"MEAN_MOTION_DDOT":0},{"OBJECT_NAME":"STARLINK-2280","OBJECT_ID":"2021-021B","EPOCH":"2025-12-01T17:45:40.665600","MEAN_MOTION":15.06399885,"ECCENTRICITY":0.000125,"INCLINATION":53.056,"RA_OF_ASC_NODE":346.333,"ARG_OF_PERICENTER":93.3486,"MEAN_ANOMALY":266.7646,"EPHEMERIS_TYPE":0,"CLASSIFICATION_TYPE":"U","NORAD_CAT_ID":47861,"ELEMENT_SET_NO":999,"REV_AT_EPOCH":26150,"BSTAR":2.0428e-5,"MEAN_MOTION_DOT":2.3e-7,"MEAN_MOTION_DDOT":0},{"OBJECT_NAME":"STARLINK-2291","OBJECT_ID":"2021-021C","EPOCH":"2025-12-01T20:28:13.826784","MEAN_MOTION":15.06397415,"ECCENTRICITY":0.0001992,"INCLINATION":53.0543,"RA_OF_ASC_NODE":340.8237,"ARG_OF_PERICENTER":83.8657,"MEAN_ANOMALY":276.2558,"EPHEMERIS_TYPE":0,"CLASSIFICATION_TYPE":"U","NORAD_CAT_ID":47862,"ELEMENT_SET_NO":999,"REV_AT_EPOCH":26158,"BSTAR":0.00020905,"MEAN_MOTION_DOT":2.833e-5,"MEAN_MOTION_DDOT":0},{"OBJECT_NAME":"STARLINK-2326","OBJECT_ID":"2021-021L","EPOCH":"2025-12-01T19:07:56.603424","MEAN_MOTION":15.06407974,"ECCENTRICITY":0.0001325,"INCLINATION":53.0563,"RA_OF_ASC_NODE":6.0755,"ARG_OF_PERICENTER":90.4387,"MEAN_ANOMALY":269.6754,"EPHEMERIS_TYPE":0,"CLASSIFICATION_TYPE":"U","NORAD_CAT_ID":47870,"ELEMENT_SET_NO":999,"REV_AT_EPOCH":26112,"BSTAR":-0.00019619,"MEAN_MOTION_DOT":-3.203e-5,"MEAN_MOTION_DDOT":0},{"OBJECT_NAME":"STARLINK-2329","OBJECT_ID":"2021-021P","EPOCH":"2025-12-01T10:12:32.133024","MEAN_MOTION":15.06395797,"ECCENTRICITY":0.000141,"INCLINATION":53.0561,"RA_OF_ASC_NODE":342.7455,"ARG_OF_PERICENTER":83.9553,"MEAN_ANOMALY":276.1596,"EPHEMERIS_TYPE":0,"CLASSIFICATION_TYPE":"U","NORAD_CAT_ID":47873,"ELEMENT_SET_NO":999,"REV_AT_EPOCH":26151,"BSTAR":0.00011885,"MEAN_MOTION_DOT":1.489e-5,"MEAN_MOTION_DDOT":0},{"OBJECT_NAME":"STARLINK-2330","OBJECT_ID":"2021-021Q","EPOCH":"2025-12-01T04:04:18.750144","MEAN_MOTION":15.06389517,"ECCENTRICITY":0.0001455,"INCLINATION":53.0551,"RA_OF_ASC_NODE":298.904,"ARG_OF_PERICENTER":85.107,"MEAN_ANOMALY":275.0085,"EPHEMERIS_TYPE":0,"CLASSIFICATION_TYPE":"U","NORAD_CAT_ID":47874,"ELEMENT_SET_NO":999,"REV_AT_EPOCH":26211,"BSTAR":-0.00013524,"MEAN_MOTION_DOT":-2.295e-5,"MEAN_MOTION_DDOT":0},{"OBJECT_NAME":"STARLINK-2336","OBJECT_ID":"2021-021V","EPOCH":"2025-12-01T19:50:24.904032","MEAN_MOTION":15.06395554,"ECCENTRICITY":0.0001479,"INCLINATION":53.0563,"RA_OF_ASC_NODE":5.9451,"ARG_OF_PERICENTER":81.6463,"MEAN_ANOMALY":278.4694,"EPHEMERIS_TYPE":0,"CLASSIFICATION_TYPE":"U","NORAD_CAT_ID":47879,"ELEMENT_SET_NO":999,"REV_AT_EPOCH":26140,"BSTAR":0.00051819,"MEAN_MOTION_DOT":7.444e-5,"MEAN_MOTION_DDOT":0},{"OBJECT_NAME":"STARLINK-2340","OBJECT_ID":"2021-021Y","EPOCH":"2025-12-01T20:00:01.999008","MEAN_MOTION":15.90215627,"ECCENTRICITY":0.0007561,"INCLINATION":53.0281,"RA_OF_ASC_NODE":253.9837,"ARG_OF_PERICENTER":133.3254,"MEAN_ANOMALY":308.6722,"EPHEMERIS_TYPE":0,"CLASSIFICATION_TYPE":"U","NORAD_CAT_ID":47882,"ELEMENT_SET_NO":999,"REV_AT_EPOCH":602,"BSTAR":0.0017234,"MEAN_MOTION_DOT":0.00531975,"MEAN_MOTION_DDOT":0.00011931},{"OBJECT_NAME":"STARLINK-2342","OBJECT_ID":"2021-021Z","EPOCH":"2025-12-01T12:09:57.917376","MEAN_MOTION":15.06399764,"ECCENTRICITY":0.0001437,"INCLINATION":53.055,"RA_OF_ASC_NODE":357.3804,"ARG_OF_PERICENTER":85.8643,"MEAN_ANOMALY":274.2511,"EPHEMERIS_TYPE":0,"CLASSIFICATION_TYPE":"U","NORAD_CAT_ID":47883,"ELEMENT_SET_NO":999,"REV_AT_EPOCH":26149,"BSTAR":9.0687e-5,"MEAN_MOTION_DOT":1.07e-5,"MEAN_MOTION_DDOT":0},{"OBJECT_NAME":"STARLINK-2346","OBJECT_ID":"2021-021AD","EPOCH":"2025-12-01T12:11:57.419808","MEAN_MOTION":15.06391996,"ECCENTRICITY":0.0001409,"INCLINATION":53.0552,"RA_OF_ASC_NODE":2.3737,"ARG_OF_PERICENTER":91.0163,"MEAN_ANOMALY":269.0987,"EPHEMERIS_TYPE":0,"CLASSIFICATION_TYPE":"U","NORAD_CAT_ID":47887,"ELEMENT_SET_NO":999,"REV_AT_EPOCH":26125,"BSTAR":0.00018426,"MEAN_MOTION_DOT":2.464e-5,"MEAN_MOTION_DDOT":0},{"OBJECT_NAME":"STARLINK-2354","OBJECT_ID":"2021-021AL","EPOCH":"2025-12-01T18:30:06.547104","MEAN_MOTION":15.06409639,"ECCENTRICITY":0.000169,"INCLINATION":53.055,"RA_OF_ASC_NODE":351.1954,"ARG_OF_PERICENTER":87.4212,"MEAN_ANOMALY":272.697,"EPHEMERIS_TYPE":0,"CLASSIFICATION_TYPE":"U","NORAD_CAT_ID":47894,"ELEMENT_SET_NO":999,"REV_AT_EPOCH":26138,"BSTAR":-0.00016896,"MEAN_MOTION_DOT":-2.798e-5,"MEAN_MOTION_DDOT":0},{"OBJECT_NAME":"STARLINK-2355","OBJECT_ID":"2021-021AM","EPOCH":"2025-12-01T18:46:03.832320","MEAN_MOTION":15.06399344,"ECCENTRICITY":0.0001452,"INCLINATION":53.055,"RA_OF_ASC_NODE":351.1468,"ARG_OF_PERICENTER":86.0878,"MEAN_ANOMALY":274.0277,"EPHEMERIS_TYPE":0,"CLASSIFICATION_TYPE":"U","NORAD_CAT_ID":47895,"ELEMENT_SET_NO":999,"REV_AT_EPOCH":26141,"BSTAR":0.00014742,"MEAN_MOTION_DOT":1.915e-5,"MEAN_MOTION_DDOT":0},{"OBJECT_NAME":"STARLINK-2356","OBJECT_ID":"2021-021AN","EPOCH":"2025-12-01T12:13:57.001728","MEAN_MOTION":15.06393649,"ECCENTRICITY":0.0001452,"INCLINATION":53.0558,"RA_OF_ASC_NODE":7.3662,"ARG_OF_PERICENTER":91.1912,"MEAN_ANOMALY":268.9243,"EPHEMERIS_TYPE":0,"CLASSIFICATION_TYPE":"U","NORAD_CAT_ID":47896,"ELEMENT_SET_NO":999,"REV_AT_EPOCH":26113,"BSTAR":-4.9145e-5,"MEAN_MOTION_DOT":-1.013e-5,"MEAN_MOTION_DDOT":0}]
