STARLINK-2433           
1 47841U 21018BG  25335.67877948 -.00000659  00000+0 -25377-4 0  9999
2 47841  53.0562 311.6055 0001388  90.2448 269.8700 15.06394611262104
STARLINK-2435           
1 47843U 21018BJ  25335.70411102  .00000662  00000+0  63322-4 0  9995
2 47843  53.0544 336.4911 0001486  91.4156 268.7003 15.06401574261773
STARLINK-2446           
1 47844U 21018BK  25335.70273476  .00001838  00000+0  14232-3 0  9997
2 47844  53.0561 331.4983 0001340  94.6385 265.4757 15.06383360261823
STARLINK-2280           
1 47861U 21021B   25335.74005400  .00000023  00000+0  20428-4 0  9994
2 47861  53.0560 346.3330 0001250  93.3486 266.7646 15.06399885261505
STARLINK-2291           
1 47862U 21021C   25335.85293781  .00002833  00000+0  20905-3 0  9998
2 47862  53.0543 340.8237 0001992  83.8657 276.2558 15.06397415261582
STARLINK-2326           
1 47870U 21021L   25335.79718291 -.00003203  00000+0 -19619-3 0  9992
2 47870  53.0563   6.0755 0001325  90.4387 269.6754 15.06407974261129
STARLINK-2329           
1 47873U 21021P   25335.42537191  .00001489  00000+0  11885-3 0  9992
2 47873  53.0561 342.7455 0001410  83.9553 276.1596 15.06395797261513
STARLINK-2330           
1 47874U 21021Q   25335.16966146 -.00002295  00000+0 -13524-3 0  9990
2 47874  53.0551 298.9040 0001455  85.1070 275.0085 15.06389517262113
STARLINK-2336           
1 47879U 21021V   25335.82667713  .00007444  00000+0  51819-3 0  9994
2 47879  53.0563   5.9451 0001479  81.6463 278.4694 15.06395554261408
STARLINK-2340           
1 47882U 21021Y   25335.83335647  .00531975  11931-3  17234-2 0  9999
2 47882  53.0281 253.9837 0007561 133.3254 308.6722 15.90215627  6021
STARLINK-2342           
1 47883U 21021Z   25335.50692034  .00001070  00000+0  90687-4 0  9994
2 47883  53.0550 357.3804 0001437  85.8643 274.2511 15.06399764261493
STARLINK-2346           
1 47887U 21021AD  25335.50830348  .00002464  00000+0  18426-3 0  9998
2 47887  53.0552   2.3737 0001409  91.0163 269.0987 15.06391996261258
STARLINK-2354           
1 47894U 21021AL  25335.77090911 -.00002798  00000+0 -16896-3 0  9990
2 47894  53.0550 351.1954 0001690  87.4212 272.6970 15.06409639261386
STARLINK-2355           
1 47895U 21021AM  25335.78198880  .00001915  00000+0  14742-3 0  9992
2 47895  53.0550 351.1468 0001452  86.0878 274.0277 15.06399344261417
STARLINK-2356           
1 47896U 21021AN  25335.50968753 -.00001013  00000+0 -49145-4 0  9994
2 47896  53.0558   7.3662 0001451  91.1912 268.9243 15.06393649261133
